CTC2_L_00540016-07
1 10186U 26414HW  26075.70048611  .00000000  00000+0  00000-0 0  9999
2 10186  97.8000 180.0000 0000000   0.0000 240.0000 14.89338871    10
CTC2_L_00540016-08
1 10187U 23416GX  26075.70048611  .00000000  00000+0  00000-0 0  9999
2 10187  97.8000 180.0000 0000000   0.0000 270.0000 14.89338871    14
CTC2_L_00540016-09
1 10188U 23517MI  26075.70048611  .00000000  00000+0  00000-0 0  9992
2 10188  97.8000 180.0000 0000000   0.0000 300.0000 14.89338871    19
CTC2_L_00540016-10
1 10189U 23165JY  26075.70048611  .00000000  00000+0  00000-0 0  9992
2 10189  97.8000 180.0000 0000000   0.0000 330.0000 14.89338871    13
CTC2_L_00540016-11
1 10190U 26388SV  26075.70048611  .00000000  00000+0  00000-0 0  9994
2 10190  97.8000 180.0000 0000000   0.0000   0.0000 14.89338871    19
CTC2_L_00540016-12
1 10191U 25180AT  26075.70048611  .00000000  00000+0  00000-0 0  9994
2 10191  97.8000 180.0000 0000000   0.0000  30.0000 14.89338871    13
CTC2_L_00540017-01
1 10192U 26304OX  26075.70048611  .00000000  00000+0  00000-0 0  9994
2 10192  97.8000 192.0000 0000000   0.0000  64.0000 14.89338871    14
CTC2_L_00540017-02
1 10193U 24008TF  26075.70048611  .00000000  00000+0  00000-0 0  9994
2 10193  97.8000 192.0000 0000000   0.0000  94.0000 14.89338871    18
CTC2_L_00540017-03
1 10194U 24148OG  26075.70048611  .00000000  00000+0  00000-0 0  9990
2 10194  97.8000 192.0000 0000000   0.0000 124.0000 14.89338871    13
CTC2_L_00540017-04
1 10195U 26990Z   26075.70048611  .00000000  00000+0  00000-0 0  9998
2 10195  97.8000 192.0000 0000000   0.0000 154.0000 14.89338871    17
CTC2_L_00540017-05
1 10196U 25761UI  26075.70048611  .00000000  00000+0  00000-0 0  9994
2 10196  97.8000 192.0000 0000000   0.0000 184.0000 14.89338871    11
CTC2_L_00540017-06
1 10197U 24332JO  26075.70048611  .00000000  00000+0  00000-0 0  9998
2 10197  97.8000 192.0000 0000000   0.0000 214.0000 14.89338871    16
CTC2_L_00540017-07
1 10198U 22172DJ  26075.70048611  .00000000  00000+0  00000-0 0  9999
2 10198  97.8000 192.0000 0000000   0.0000 244.0000 14.89338871    10
CTC2_L_00540017-08
1 10199U 22138CF  26075.70048611  .00000000  00000+0  00000-0 0  9992
2 10199  97.8000 192.0000 0000000   0.0000 274.0000 14.89338871    14
CTC2_L_00540017-09
1 10200U 25086ID  26075.70048611  .00000000  00000+0  00000-0 0  9990
2 10200  97.8000 192.0000 0000000   0.0000 304.0000 14.89338871    11
CTC2_L_00540017-10
1 10201U 24159MR  26075.70048611  .00000000  00000+0  00000-0 0  9991
2 10201  97.8000 192.0000 0000000   0.0000 334.0000 14.89338871    15
CTC2_L_00540017-11
1 10202U 25653DV  26075.70048611  .00000000  00000+0  00000-0 0  9992
2 10202  97.8000 192.0000 0000000   0.0000   4.0000 14.89338871    10
CTC2_L_00540017-12
1 10203U 23896CL  26075.70048611  .00000000  00000+0  00000-0 0  9990
2 10203  97.8000 192.0000 0000000   0.0000  34.0000 14.89338871    14
CTC2_L_00540018-01
1 10204U 26156IE  26075.70048611  .00000000  00000+0  00000-0 0  9993
2 10204  97.8000 204.0000 0000000   0.0000  68.0000 14.89338871    16
CTC2_L_00540018-02
1 10205U 26568BA  26075.70048611  .00000000  00000+0  00000-0 0  9991
2 10205  97.8000 204.0000 0000000   0.0000  98.0000 14.89338871    10
CTC2_L_00540018-03
1 10206U 26406IJ  26075.70048611  .00000000  00000+0  00000-0 0  9993
2 10206  97.8000 204.0000 0000000   0.0000 128.0000 14.89338871    15
CTC2_L_00540018-04
1 10207U 25115CV  26075.70048611  .00000000  00000+0  00000-0 0  9990
2 10207  97.8000 204.0000 0000000   0.0000 158.0000 14.89338871    19
CTC2_L_00540018-05
1 10208U 23638UX  26075.70048611  .00000000  00000+0  00000-0 0  9999
2 10208  97.8000 204.0000 0000000   0.0000 188.0000 14.89338871    13
CTC2_L_00540018-06
1 10209U 26028ZY  26075.70048611  .00000000  00000+0  00000-0 0  9996
2 10209  97.8000 204.0000 0000000   0.0000 218.0000 14.89338871    18
CTC2_L_00540018-07
1 10210U 25088K   26075.70048611  .00000000  00000+0  00000-0 0  9993
2 10210  97.8000 204.0000 0000000   0.0000 248.0000 14.89338871    13
CTC2_L_00540018-08
1 10211U 23431HE  26075.70048611  .00000000  00000+0  00000-0 0  9994
2 10211  97.8000 204.0000 0000000   0.0000 278.0000 14.89338871    17
CTC2_L_00540018-09
1 10212U 24211RE  26075.70048611  .00000000  00000+0  00000-0 0  9992
2 10212  97.8000 204.0000 0000000   0.0000 308.0000 14.89338871    12
CTC2_L_00540018-10
1 10213U 24963PG  26075.70048611  .00000000  00000+0  00000-0 0  9997
2 10213  97.8000 204.0000 0000000   0.0000 338.0000 14.89338871    16
CTC2_L_00540018-11
1 10214U 24580EK  26075.70048611  .00000000  00000+0  00000-0 0  9993
2 10214  97.8000 204.0000 0000000   0.0000   8.0000 14.89338871    11
CTC2_L_00540018-12
1 10215U 22286HF  26075.70048611  .00000000  00000+0  00000-0 0  9995
2 10215  97.8000 204.0000 0000000   0.0000  38.0000 14.89338871    15
CTC2_L_00540019-01
1 10216U 22867EF  26075.70048611  .00000000  00000+0  00000-0 0  9991
2 10216  97.8000 216.0000 0000000   0.0000  72.0000 14.89338871    17
CTC2_L_00540019-02
1 10217U 22759TR  26075.70048611  .00000000  00000+0  00000-0 0  9992
2 10217  97.8000 216.0000 0000000   0.0000 102.0000 14.89338871    12
CTC2_L_00540019-03
1 10218U 23309UF  26075.70048611  .00000000  00000+0  00000-0 0  9995
2 10218  97.8000 216.0000 0000000   0.0000 132.0000 14.89338871    16
CTC2_L_00540019-04
1 10219U 25159SB  26075.70048611  .00000000  00000+0  00000-0 0  9991
2 10219  97.8000 216.0000 0000000   0.0000 162.0000 14.89338871    10
CTC2_L_00540019-05
1 10220U 24972IP  26075.70048611  .00000000  00000+0  00000-0 0  9995
2 10220  97.8000 216.0000 0000000   0.0000 192.0000 14.89338871    15
CTC2_L_00540019-06
1 10221U 25118LP  26075.70048611  .00000000  00000+0  00000-0 0  9999
2 10221  97.8000 216.0000 0000000   0.0000 222.0000 14.89338871    10
CTC2_L_00540019-07
1 10222U 22405CG  26075.70048611  .00000000  00000+0  00000-0 0  9996
2 10222  97.8000 216.0000 0000000   0.0000 252.0000 14.89338871    14
CTC2_L_00540019-08
1 10223U 25661RM  26075.70048611  .00000000  00000+0  00000-0 0  9994
2 10223  97.8000 216.0000 0000000   0.0000 282.0000 14.89338871    18
CTC2_L_00540019-09
1 10224U 24535GE  26075.70048611  .00000000  00000+0  00000-0 0  9994
2 10224  97.8000 216.0000 0000000   0.0000 312.0000 14.89338871    13
CTC2_L_00540019-10
1 10225U 23115XV  26075.70048611  .00000000  00000+0  00000-0 0  9998
2 10225  97.8000 216.0000 0000000   0.0000 342.0000 14.89338871    17
CTC2_L_00540019-11
1 10226U 22813UV  26075.70048611  .00000000  00000+0  00000-0 0  9993
2 10226  97.8000 216.0000 0000000   0.0000  12.0000 14.89338871    12
CTC2_L_00540019-12
1 10227U 26207CT  26075.70048611  .00000000  00000+0  00000-0 0  9995
2 10227  97.8000 216.0000 0000000   0.0000  42.0000 14.89338871    16
CTC2_L_00540020-01
1 10228U 22809WH  26075.70048611  .00000000  00000+0  00000-0 0  9990
2 10228  97.8000 228.0000 0000000   0.0000  76.0000 14.89338871    17
CTC2_L_00540020-02
1 10229U 26764YM  26075.70048611  .00000000  00000+0  00000-0 0  9995
2 10229  97.8000 228.0000 0000000   0.0000 106.0000 14.89338871    12
CTC2_L_00540020-03
1 10230U 23362IN  26075.70048611  .00000000  00000+0  00000-0 0  9998
2 10230  97.8000 228.0000 0000000   0.0000 136.0000 14.89338871    17
CTC2_L_00540020-04
1 10231U 25066TJ  26075.70048611  .00000000  00000+0  00000-0 0  9992
2 10231  97.8000 228.0000 0000000   0.0000 166.0000 14.89338871    11
CTC2_L_00540020-05
1 10232U 26666HE  26075.70048611  .00000000  00000+0  00000-0 0  9990
2 10232  97.8000 228.0000 0000000   0.0000 196.0000 14.89338871    15
CTC2_L_00540020-06
1 10233U 22196UX  26075.70048611  .00000000  00000+0  00000-0 0  9995
2 10233  97.8000 228.0000 0000000   0.0000 226.0000 14.89338871    10
CTC2_L_00540020-07
1 10234U 24649GU  26075.70048611  .00000000  00000+0  00000-0 0  9991
2 10234  97.8000 228.0000 0000000   0.0000 256.0000 14.89338871    14
CTC2_L_00540020-08
1 10235U 25517WP  26075.70048611  .00000000  00000+0  00000-0 0  9997
2 10235  97.8000 228.0000 0000000   0.0000 286.0000 14.89338871    18
CTC2_L_00540020-09
1 10236U 24949UN  26075.70048611  .00000000  00000+0  00000-0 0  9996
2 10236  97.8000 228.0000 0000000   0.0000 316.0000 14.89338871    13
CTC2_L_00540020-10
1 10237U 22021XL  26075.70048611  .00000000  00000+0  00000-0 0  9996
2 10237  97.8000 228.0000 0000000   0.0000 346.0000 14.89338871    17
CTC2_L_00540020-11
1 10238U 25019AL  26075.70048611  .00000000  00000+0  00000-0 0  9997
2 10238  97.8000 228.0000 0000000   0.0000  16.0000 14.89338871    12
CTC2_L_00540020-12
1 10239U 22719ES  26075.70048611  .00000000  00000+0  00000-0 0  9992
2 10239  97.8000 228.0000 0000000   0.0000  46.0000 14.89338871    16
CTC2_L_00540021-01
1 10240U 22647EA  26075.70048611  .00000000  00000+0  00000-0 0  9994
2 10240  97.8000 240.0000 0000000   0.0000  80.0000 14.89338871    10
CTC2_L_00540021-02
1 10241U 23078IQ  26075.70048611  .00000000  00000+0  00000-0 0  9994
2 10241  97.8000 240.0000 0000000   0.0000 110.0000 14.89338871    15
CTC2_L_00540021-03
1 10242U 25308OI  26075.70048611  .00000000  00000+0  00000-0 0  9993
2 10242  97.8000 240.0000 0000000   0.0000 140.0000 14.89338871    19
CTC2_L_00540021-04
1 10243U 26343BF  26075.70048611  .00000000  00000+0  00000-0 0  9994
2 10243  97.8000 240.0000 0000000   0.0000 170.0000 14.89338871    13
CTC2_L_00540021-05
1 10244U 26674RN  26075.70048611  .00000000  00000+0  00000-0 0  9992
2 10244  97.8000 240.0000 0000000   0.0000 200.0000 14.89338871    18
CTC2_L_00540021-06
1 10245U 22112GD  26075.70048611  .00000000  00000+0  00000-0 0  9996
2 10245  97.8000 240.0000 0000000   0.0000 230.0000 14.89338871    12
CTC2_L_00540021-07
1 10246U 26139SP  26075.70048611  .00000000  00000+0  00000-0 0  9990
2 10246  97.8000 240.0000 0000000   0.0000 260.0000 14.89338871    16
CTC2_L_00540021-08
1 10247U 25171YA  26075.70048611  .00000000  00000+0  00000-0 0  9996
2 10247  97.8000 240.0000 0000000   0.0000 290.0000 14.89338871    10
